IRIDIUM 119             
1 42959U 17061E   24328.83882378  .00000694  00000+0  24069-3 0  9992
2 42959  86.3960 263.5467 0002540  81.4287 278.7197 14.34224845373064
IRIDIUM 107             
1 42960U 17061F   24328.85785738  .00000725  00000+0  25172-3 0  9999
2 42960  86.3959 263.5566 0002368  73.5606 286.5849 14.34222624373074
IRIDIUM 132             
1 42961U 17061G   24328.86419686 -.00000181  00000+0 -71706-4 0  9990
2 42961  86.3955 263.5380 0002204  78.8492 281.2951 14.34217482373077
IRIDIUM 136             
1 42962U 17061H   24328.68662966  .00000691  00000+0  23979-3 0  9994
2 42962  86.3960 263.6156 0002460  78.5645 281.5827 14.34219872373066
IRIDIUM 139             
1 42963U 17061J   24328.90225348 -.00000123  00000+0 -50811-4 0  9997
2 42963  86.3961 263.5783 0002264  77.9190 282.2259 14.34217307373106
IRIDIUM 125             
1 42964U 17061K   24328.88956850  .00000662  00000+0  22916-3 0  9994
2 42964  86.3961 263.6340 0002818  78.0859 282.0653 14.34218101373116
IRIDIUM 135             
1 43070U 17083A   24328.51485133 -.00000063  00000+0 -29682-4 0  9993
2 43070  86.4018 200.4974 0001642  89.6899 270.4485 14.34217217362352
IRIDIUM 138             
1 43071U 17083B   24328.67975922  .00000394  00000+0  13361-3 0  9992
2 43071  86.4000 200.1259 0002658  89.7992 270.3509 14.34218793362367
